ORBCOMM FM20            
1 25416U 98046D   24186.92484301  .00001284  00000+0  49189-3 0  9995
2 25416  44.9962  23.7071 0000318 169.2295 190.8559 14.35413891354334
ORBCOMM FM16            
1 25417U 98046E   24186.91375722  .00001788  00000+0  65189-3 0  9998
2 25417  44.9952  19.0961 0002954 351.4364   8.6432 14.36464719354275
ORBCOMM FM15            
1 25418U 98046F   24186.95079853  .00001814  00000+0  66455-3 0  9996
2 25418  44.9985  23.1144 0002610 355.8914   4.1912 14.36178131354453
ORBCOMM FM14            
1 25419U 98046G   24186.96839545  .00001861  00000+0  67767-3 0  9999
2 25419  44.9976  22.0634 0001427 336.2028  23.8753 14.36372212354468
ORBCOMM FM13            
1 25420U 98046H   24186.97334349  .00001598  00000+0  59785-3 0  9992
2 25420  44.9994  27.2348 0003895 332.6960  27.3682 14.35605744354430
ORBCOMM FM21            
1 25475U 98053A   24186.92724124  .00001456  00000+0  55033-3 0  9994
2 25475  45.0087 111.8554 0001860 323.8689  36.2033 14.35504840347317
ORBCOMM FM22            
1 25476U 98053B   24186.88352615  .00001633  00000+0  60437-3 0  9993
2 25476  45.0075 109.1108 0002987 300.9179  59.1375 14.36074675347302
ORBCOMM FM23            
1 25477U 98053C   24186.88403872  .00001601  00000+0  59960-3 0  9990
2 25477  45.0086 114.4658 0002578 305.0920  54.9685 14.35556986347452
